{"type": "FeatureCollection", "features": [ {"type": "Feature", "properties": {"norad_id": 66879, "name": "STARLINK-35749", "group": "last-30-days", "lat": -14.69266414425822, "lon": -4.4708660225106405, "alt_km": 397.235261373361, "timestamp": "2025-12-26T04:40:04.512354+00:00", "meta": {"OBJECT_NAME": "STARLINK-35749", "OBJECT_ID": "2025-283B", "EPOCH": "2025-12-25T22:00:01.999584", "MEAN_MOTION": 15.58887394, "ECCENTRICITY": 0.00015789, "INCLINATION": 53.1596, "RA_OF_ASC_NODE": 8.2133, "ARG_OF_PERICENTER": 93.558, "MEAN_ANOMALY": 128.7274, "EPHEMERIS_TYPE": 0, "CLASSIFICATION_TYPE": "U", "NORAD_CAT_ID": 66879, "ELEMENT_SET_NO": 999, "REV_AT_EPOCH": 454, "BSTAR": -0.027691308, "MEAN_MOTION_DOT": -0.0192771, "MEAN_MOTION_DDOT": 0}, "tle": {"line1": "1 66879U 25283B   25359.91668981 -.01927710  00000+0 -27691-1 0  9992", "line2": "2 66879  53.1596   8.2133 0001578  93.5580 128.7274 15.58887394  4547"}}, "geometry": {"type": "Point", "coordinates": [-4.4708660225106405, -14.69266414425822]}}, {"type": "Feature", "properties": {"norad_id": 66880, "name": "STARLINK-35844", "group": "last-30-days", "lat": -16.1938020026116, "lon": -5.704096701728988, "alt_km": 397.3690625871177, "timestamp": "2025-12-26T04:40:04.512365+00:00", "meta": {"OBJECT_NAME": "STARLINK-35844", "OBJECT_ID": "2025-283C", "EPOCH": "2025-12-25T22:00:01.999584", "MEAN_MOTION": 15.58891137, "ECCENTRICITY": 0.00016006, "INCLINATION": 53.1596, "RA_OF_ASC_NODE": 8.2184, "ARG_OF_PERICENTER": 90.8856, "MEAN_ANOMALY": 129.478, "EPHEMERIS_TYPE": 0, "CLASSIFICATION_TYPE": "U", "NORAD_CAT_ID": 66880, "ELEMENT_SET_NO": 999, "REV_AT_EPOCH": 454, "BSTAR": -0.027703677, "MEAN_MOTION_DOT": -0.01928727, "MEAN_MOTION_DDOT": 0}, "tle": {"line1": "1 66880U 25283C   25359.91668981 -.01928727  00000+0 -27704-1 0  9998", "line2": "2 66880  53.1596   8.2184 0001600  90.8856 129.4780 15.58891137  4547"}}, "geometry": {"type": "Point", "coordinates": [-5.704096701728988, -16.1938020026116]}}, {"type": "Feature", "properties": {"norad_id": 66881, "name": "STARLINK-35860", "group": "last-30-days", "lat": -13.187747562949488, "lon": -3.255832317814648, "alt_km": 396.9912411792111, "timestamp": "2025-12-26T04:40:04.512375+00:00", "meta": {"OBJECT_NAME": "STARLINK-35860", "OBJECT_ID": "2025-283D", "EPOCH": "2025-12-25T22:00:01.999584", "MEAN_MOTION": 15.58895087, "ECCENTRICITY": 0.00016149, "INCLINATION": 53.1594, "RA_OF_ASC_NODE": 8.2092, "ARG_OF_PERICENTER": 89.0399, "MEAN_ANOMALY": 135.1587, "EPHEMERIS_TYPE": 0, "CLASSIFICATION_TYPE": "U", "NORAD_CAT_ID": 66881, "ELEMENT_SET_NO": 999, "REV_AT_EPOCH": 454, "BSTAR": -0.027906976, "MEAN_MOTION_DOT": -0.01941452, "MEAN_MOTION_DDOT": 0}, "tle": {"line1": "1 66881U 25283D   25359.91668981 -.01941452  00000+0 -27907-1 0  9994", "line2": "2 66881  53.1594   8.2092 0001614  89.0399 135.1587 15.58895087  4548"}}, "geometry": {"type": "Point", "coordinates": [-3.255832317814648, -13.187747562949488]}}, {"type": "Feature", "properties": {"norad_id": 66882, "name": "STARLINK-35912", "group": "last-30-days", "lat": -11.675960464921562, "lon": -2.0533763633188173, "alt_km": 396.80672213858907, "timestamp": "2025-12-26T04:40:04.512385+00:00", "meta": {"OBJECT_NAME": "STARLINK-35912", "OBJECT_ID": "2025-283E", "EPOCH": "2025-12-25T22:00:01.999584", "MEAN_MOTION": 15.58887155, "ECCENTRICITY": 0.00016362, "INCLINATION": 53.1595, "RA_OF_ASC_NODE": 8.2064, "ARG_OF_PERICENTER": 89.6473, "MEAN_ANOMALY": 136.4709, "EPHEMERIS_TYPE": 0, "CLASSIFICATION_TYPE": "U", "NORAD_CAT_ID": 66882, "ELEMENT_SET_NO": 999, "REV_AT_EPOCH": 454, "BSTAR": -0.027665931, "MEAN_MOTION_DOT": -0.01926178, "MEAN_MOTION_DDOT": 0}, "tle": {"line1": "1 66882U 25283E   25359.91668981 -.01926178  00000+0 -27666-1 0  9995", "line2": "2 66882  53.1595   8.2064 0001636  89.6473 136.4709 15.58887155  4549"}}, "geometry": {"type": "Point", "coordinates": [-2.0533763633188173, -11.675960464921562]}}, {"type": "Feature", "properties": {"norad_id": 66883, "name": "STARLINK-35947", "group": "last-30-days", "lat": -10.157183519750783, "lon": -0.8632928355874772, "alt_km": 396.6255763219133, "timestamp": "2025-12-26T04:40:04.512398+00:00", "meta": {"OBJECT_NAME": "STARLINK-35947", "OBJECT_ID": "2025-283F", "EPOCH": "2025-12-25T22:00:01.999584", "MEAN_MOTION": 15.58890741, "ECCENTRICITY": 0.00015048, "INCLINATION": 53.1598, "RA_OF_ASC_NODE": 8.2027, "ARG_OF_PERICENTER": 92.1199, "MEAN_ANOMALY": 135.914, "EPHEMERIS_TYPE": 0, "CLASSIFICATION_TYPE": "U", "NORAD_CAT_ID": 66883, "ELEMENT_SET_NO": 999, "REV_AT_EPOCH": 459, "BSTAR": -0.027746409, "MEAN_MOTION_DOT": -0.01931255, "MEAN_MOTION_DDOT": 0}, "tle": {"line1": "1 66883U 25283F   25359.91668981 -.01931255  00000+0 -27746-1 0  9997", "line2": "2 66883  53.1598   8.2027 0001504  92.1199 135.9140 15.58890741  4593"}}, "geometry": {"type": "Point", "coordinates": [-0.8632928355874772, -10.157183519750783]}}, {"type": "Feature", "properties": {"norad_id": 66884, "name": "STARLINK-36057", "group": "last-30-days", "lat": -7.111116345268411, "lon": 1.480420654927347, "alt_km": 396.22468968635803, "timestamp": "2025-12-26T04:40:04.512408+00:00", "meta": {"OBJECT_NAME": "STARLINK-36057", "OBJECT_ID": "2025-283G", "EPOCH": "2025-12-25T22:00:01.999584", "MEAN_MOTION": 15.5889016, "ECCENTRICITY": 0.00014944, "INCLINATION": 53.1596, "RA_OF_ASC_NODE": 8.194, "ARG_OF_PERICENTER": 92.8912, "MEAN_ANOMALY": 138.9754, "EPHEMERIS_TYPE": 0, "CLASSIFICATION_TYPE": "U", "NORAD_CAT_ID": 66884, "ELEMENT_SET_NO": 999, "REV_AT_EPOCH": 454, "BSTAR": -0.027700774, "MEAN_MOTION_DOT": -0.01928412, "MEAN_MOTION_DDOT": 0}, "tle": {"line1": "1 66884U 25283G   25359.91668981 -.01928412  00000+0 -27701-1 0  9990", "line2": "2 66884  53.1596   8.1940 0001494  92.8912 138.9754 15.58890160  4547"}}, "geometry": {"type": "Point", "coordinates": [1.480420654927347, -7.111116345268411]}}, {"type": "Feature", "properties": {"norad_id": 66885, "name": "STARLINK-35954", "group": "last-30-days", "lat": -8.635639648056411, "lon": 0.3133933043460499, "alt_km": 396.4348941285425, "timestamp": "2025-12-26T04:40:04.512418+00:00", "meta": {"OBJECT_NAME": "STARLINK-35954", "OBJECT_ID": "2025-283H", "EPOCH": "2025-12-25T22:00:01.999584", "MEAN_MOTION": 15.58890188, "ECCENTRICITY": 0.00015327, "INCLINATION": 53.1597, "RA_OF_ASC_NODE": 8.1982, "ARG_OF_PERICENTER": 92.5402, "MEAN_ANOMALY": 137.4112, "EPHEMERIS_TYPE": 0, "CLASSIFICATION_TYPE": "U", "NORAD_CAT_ID": 66885, "ELEMENT_SET_NO": 999, "REV_AT_EPOCH": 454, "BSTAR": -0.027726653, "MEAN_MOTION_DOT": -0.01930027, "MEAN_MOTION_DDOT": 0}, "tle": {"line1": "1 66885U 25283H   25359.91668981 -.01930027  00000+0 -27727-1 0  9994", "line2": "2 66885  53.1597   8.1982 0001532  92.5402 137.4112 15.58890188  4541"}}, "geometry": {"type": "Point", "coordinates": [0.3133933043460499, -8.635639648056411]}}, {"type": "Feature", "properties": {"norad_id": 66886, "name": "STARLINK-35900", "group": "last-30-days", "lat": -5.584182710485465, "lon": 2.639365545016711, "alt_km": 396.03463306631784, "timestamp": "2025-12-26T04:40:04.512428+00:00", "meta": {"OBJECT_NAME": "STARLINK-35900", "OBJECT_ID": "2025-283J", "EPOCH": "2025-12-25T22:00:01.999584", "MEAN_MOTION": 15.58890426, "ECCENTRICITY": 0.0001582, "INCLINATION": 53.1598, "RA_OF_ASC_NODE": 8.1898, "ARG_OF_PERICENTER": 93.6609, "MEAN_ANOMALY": 140.1218, "EPHEMERIS_TYPE": 0, "CLASSIFICATION_TYPE": "U", "NORAD_CAT_ID": 66886, "ELEMENT_SET_NO": 999, "REV_AT_EPOCH": 454, "BSTAR": -0.027696739, "MEAN_MOTION_DOT": -0.01928242, "MEAN_MOTION_DDOT": 0}, "tle": {"line1": "1 66886U 25283J   25359.91668981 -.01928242  00000+0 -27697-1 0  9997", "line2": "2 66886  53.1598   8.1898 0001582  93.6609 140.1218 15.58890426  4548"}}, "geometry": {"type": "Point", "coordinates": [2.639365545016711, -5.584182710485465]}}, {"type": "Feature", "properties": {"norad_id": 66887, "name": "STARLINK-35925", "group": "last-30-days", "lat": -4.052148327873945, "lon": 3.7948519805655674, "alt_km": 395.86017234007886, "timestamp": "2025-12-26T04:40:04.512439+00:00", "meta": {"OBJECT_NAME": "STARLINK-35925", "OBJECT_ID": "2025-283K", "EPOCH": "2025-12-25T22:00:01.999584", "MEAN_MOTION": 15.58887723, "ECCENTRICITY": 0.00015497, "INCLINATION": 53.1598, "RA_OF_ASC_NODE": 8.1861, "ARG_OF_PERICENTER": 96.3254, "MEAN_ANOMALY": 139.378, "EPHEMERIS_TYPE": 0, "CLASSIFICATION_TYPE": "U", "NORAD_CAT_ID": 66887, "ELEMENT_SET_NO": 999, "REV_AT_EPOCH": 454, "BSTAR": -0.027684832, "MEAN_MOTION_DOT": -0.01927314, "MEAN_MOTION_DDOT": 0}, "tle": {"line1": "1 66887U 25283K   25359.91668981 -.01927314  00000+0 -27685-1 0  9994", "line2": "2 66887  53.1598   8.1861 0001549  96.3254 139.3780 15.58887723  4548"}}, "geometry": {"type": "Point", "coordinates": [3.7948519805655674, -4.052148327873945]}}, {"type": "Feature", "properties": {"norad_id": 66888, "name": "STARLINK-35919", "group": "last-30-days", "lat": -2.520836160111473, "lon": 4.943534051746419, "alt_km": 395.60484536811964, "timestamp": "2025-12-26T04:40:04.512449+00:00", "meta": {"OBJECT_NAME": "STARLINK-35919", "OBJECT_ID": "2025-283L", "EPOCH": "2025-12-25T22:00:01.999584", "MEAN_MOTION": 15.58888597, "ECCENTRICITY": 0.00015079, "INCLINATION": 53.1595, "RA_OF_ASC_NODE": 8.1818, "ARG_OF_PERICENTER": 94.9482, "MEAN_ANOMALY": 142.6692, "EPHEMERIS_TYPE": 0, "CLASSIFICATION_TYPE": "U", "NORAD_CAT_ID": 66888, "ELEMENT_SET_NO": 999, "REV_AT_EPOCH": 454, "BSTAR": -0.027664122, "MEAN_MOTION_DOT": -0.01926072, "MEAN_MOTION_DDOT": 0}, "tle": {"line1": "1 66888U 25283L   25359.91668981 -.01926072  00000+0 -27664-1 0  9992", "line2": "2 66888  53.1595   8.1818 0001507  94.9482 142.6692 15.58888597  4548"}}, "geometry": {"type": "Point", "coordinates": [4.943534051746419, -2.520836160111473]}}]}